start=new Date('2023-01-01T00:00:00.000Z').valueOf();
sats=[{"TIME_SYSTEM":"UTC","MEAN_ANOMALY":"272.8457","SEMIMAJOR_AXIS":"6925.348","EPOCH":"2022-12-31T17:53:45.745440","PERIAPSIS":"546.378","TLE_LINE1":"1 47380U 21005AH  22365.74566835  .00002892  00000-0  21297-3 0  9997","LAUNCH_DATE":"2021-01-20","CENTER_NAME":"EARTH","OBJECT_TYPE":"PAYLOAD","CLASSIFICATION_TYPE":"U","EPHEMERIS_TYPE":"0","GP_ID":"221890164","INCLINATION":"53.0568","MEAN_ELEMENT_THEORY":"SGP4","FILE":"3728081","BSTAR":"0.00021297000000","ELEMENT_SET_NO":"999","RA_OF_ASC_NODE":"216.7719","MEAN_MOTION":"15.06400120","OBJECT_ID":"2021-005AH","MEAN_MOTION_DDOT":"0.0000000000000","ARG_OF_PERICENTER":"87.2670","COUNTRY_CODE":"US","PERIOD":"95.592","RCS_SIZE":"LARGE","TLE_LINE2":"2 47380  53.0568 216.7719 0001206  87.2670 272.8457 15.06400120108039","SITE":"AFETR","APOAPSIS":"548.048","MEAN_MOTION_DOT":"0.00002892","ECCENTRICITY":"0.00012060","REF_FRAME":"TEME","NORAD_CAT_ID":"47380","OBJECT_NAME":"STARLINK-2100","DECAY_DATE":null,"REV_AT_EPOCH":"10803"},{"TLE_LINE2":"2 47381  53.0533 222.3715 0001355  81.5767 278.5375 15.06420445107943","SITE":"AFETR","APOAPSIS":"548.089","MEAN_MOTION_DOT":"0.00007910","REF_FRAME":"TEME","ECCENTRICITY":"0.00013550","REV_AT_EPOCH":"10794","DECAY_DATE":null,"OBJECT_NAME":"STARLINK-2101","NORAD_CAT_ID":"47381","BSTAR":"0.00054900000000","MEAN_MOTION":"15.06420445","OBJECT_ID":"2021-005AJ","RA_OF_ASC_NODE":"222.3715","ELEMENT_SET_NO":"999","COUNTRY_CODE":"US","ARG_OF_PERICENTER":"81.5767","MEAN_MOTION_DDOT":"0.0000000000000","RCS_SIZE":"LARGE","PERIOD":"95.591","CLASSIFICATION_TYPE":"U","EPHEMERIS_TYPE":"0","GP_ID":"221888923","FILE":"3728081","MEAN_ELEMENT_THEORY":"SGP4","INCLINATION":"53.0533","TIME_SYSTEM":"UTC","SEMIMAJOR_AXIS":"6925.286","EPOCH":"2022-12-31T15:05:55.110048","MEAN_ANOMALY":"278.5375","CENTER_NAME":"EARTH","LAUNCH_DATE":"2021-01-20","TLE_LINE1":"1 47381U 21005AJ  22365.62911007  .00007910  00000-0  54900-3 0  9993","PERIAPSIS":"546.213","OBJECT_TYPE":"PAYLOAD"},{"TIME_SYSTEM":"UTC","MEAN_ANOMALY":"242.6287","SEMIMAJOR_AXIS":"6925.348","EPOCH":"2022-12-31T17:43:08.887584","PERIAPSIS":"546.152","TLE_LINE1":"1 47382U 21005AK  22365.73829731  .00002829  00000-0  20873-3 0  9994","LAUNCH_DATE":"2021-01-20","CENTER_NAME":"EARTH","OBJECT_TYPE":"PAYLOAD","CLASSIFICATION_TYPE":"U","EPHEMERIS_TYPE":"0","GP_ID":"221889173","INCLINATION":"53.0538","FILE":"3728081","MEAN_ELEMENT_THEORY":"SGP4","BSTAR":"0.00020873000000","ELEMENT_SET_NO":"999","RA_OF_ASC_NODE":"216.8088","MEAN_MOTION":"15.06400194","OBJECT_ID":"2021-005AK","MEAN_MOTION_DDOT":"0.0000000000000","ARG_OF_PERICENTER":"117.4858","COUNTRY_CODE":"US","PERIOD":"95.592","RCS_SIZE":"LARGE","TLE_LINE2":"2 47382  53.0538 216.8088 0001532 117.4858 242.6287 15.06400194108020","SITE":"AFETR","APOAPSIS":"548.274","MEAN_MOTION_DOT":"0.00002829","ECCENTRICITY":"0.00015320","REF_FRAME":"TEME","NORAD_CAT_ID":"47382","OBJECT_NAME":"STARLINK-2102","DECAY_DATE":null,"REV_AT_EPOCH":"10802"},{"TIME_SYSTEM":"UTC","MEAN_ANOMALY":"293.6837","SEMIMAJOR_AXIS":"6925.372","EPOCH":"2022-12-31T19:45:13.056192","PERIAPSIS":"546.189","TLE_LINE1":"1 47383U 21005AL  22365.82306778  .00002529  00000-0  18862-3 0  9998","LAUNCH_DATE":"2021-01-20","CENTER_NAME":"EARTH","OBJECT_TYPE":"PAYLOAD","CLASSIFICATION_TYPE":"U","EPHEMERIS_TYPE":"0","GP_ID":"221889925","INCLINATION":"53.0536","FILE":"3728081","MEAN_ELEMENT_THEORY":"SGP4","BSTAR":"0.00018862000000","ELEMENT_SET_NO":"999","RA_OF_ASC_NODE":"206.4205","OBJECT_ID":"2021-005AL","MEAN_MOTION":"15.06392470","MEAN_MOTION_DDOT":"0.0000000000000","COUNTRY_CODE":"US","ARG_OF_PERICENTER":"66.4311","PERIOD":"95.593","RCS_SIZE":"LARGE","SITE":"AFETR","TLE_LINE2":"2 47383  53.0536 206.4205 0001513  66.4311 293.6837 15.06392470108182","APOAPSIS":"548.284","MEAN_MOTION_DOT":"0.00002529","ECCENTRICITY":"0.00015130","REF_FRAME":"TEME","NORAD_CAT_ID":"47383","OBJECT_NAME":"STARLINK-2103","DECAY_DATE":null,"REV_AT_EPOCH":"10818"},{"OBJECT_TYPE":"PAYLOAD","PERIAPSIS":"545.997","TLE_LINE1":"1 47384U 21005AM  22365.85627298  .00001613  00000-0  12715-3 0  9999","LAUNCH_DATE":"2021-01-20","CENTER_NAME":"EARTH","MEAN_ANOMALY":"281.9172","SEMIMAJOR_AXIS":"6925.317","EPOCH":"2022-12-31T20:33:01.985472","TIME_SYSTEM":"UTC","INCLINATION":"53.0541","FILE":"3728081","MEAN_ELEMENT_THEORY":"SGP4","GP_ID":"221889664","EPHEMERIS_TYPE":"0","CLASSIFICATION_TYPE":"U","PERIOD":"95.591","RCS_SIZE":"LARGE","MEAN_MOTION_DDOT":"0.0000000000000","COUNTRY_CODE":"US","ARG_OF_PERICENTER":"78.2009","ELEMENT_SET_NO":"999","RA_OF_ASC_NODE":"216.5039","MEAN_MOTION":"15.06410258","OBJECT_ID":"2021-005AM","BSTAR":"0.00012715000000","NORAD_CAT_ID":"47384","OBJECT_NAME":"STARLINK-2104","DECAY_DATE":null,"REV_AT_EPOCH":"10804","ECCENTRICITY":"0.00017120","REF_FRAME":"TEME","MEAN_MOTION_DOT":"0.00001613","SITE":"AFETR","TLE_LINE2":"2 47384  53.0541 216.5039 0001712  78.2009 281.9172 15.06410258108044","APOAPSIS":"548.368"},{"MEAN_MOTION_DOT":"0.00002508","TLE_LINE2":"2 47385  53.0529 216.2880 0001525 112.0794 248.0357 15.06404689108042","SITE":"AFETR","APOAPSIS":"548.255","REV_AT_EPOCH":"10804","DECAY_DATE":null,"OBJECT_NAME":"STARLINK-2105","NORAD_CAT_ID":"47385","REF_FRAME":"TEME","ECCENTRICITY":"0.00015250","MEAN_MOTION":"15.06404689","OBJECT_ID":"2021-005AN","RA_OF_ASC_NODE":"216.2880","ELEMENT_SET_NO":"999","BSTAR":"0.00018716000000","RCS_SIZE":"LARGE","PERIOD":"95.592","COUNTRY_CODE":"US","ARG_OF_PERICENTER":"112.0794","MEAN_MOTION_DDOT":"0.0000000000000","EPHEMERIS_TYPE":"0","CLASSIFICATION_TYPE":"U","MEAN_ELEMENT_THEORY":"SGP4","FILE":"3728081","INCLINATION":"53.0529","GP_ID":"221888423","SEMIMAJOR_AXIS":"6925.334","EPOCH":"2022-12-31T20:27:41.883840","MEAN_ANOMALY":"248.0357","TIME_SYSTEM":"UTC","OBJECT_TYPE":"PAYLOAD","CENTER_NAME":"EARTH","LAUNCH_DATE":"2021-01-20","TLE_LINE1":"1 47385U 21005AN  22365.85256810  .00002508  00000-0  18716-3 0  9999","PERIAPSIS":"546.143"},{"OBJECT_TYPE":"PAYLOAD","CENTER_NAME":"EARTH","TLE_LINE1":"1 47386U 21005AP  22365.74935574  .00002511  00000-0  18737-3 0  9996","PERIAPSIS":"546.220","LAUNCH_DATE":"2021-01-20","SEMIMAJOR_AXIS":"6925.346","EPOCH":"2022-12-31T17:59:04.335936","MEAN_ANOMALY":"278.5298","TIME_SYSTEM":"UTC","FILE":"3728081","MEAN_ELEMENT_THEORY":"SGP4","INCLINATION":"53.0532","GP_ID":"221888673","EPHEMERIS_TYPE":"0","CLASSIFICATION_TYPE":"U","RCS_SIZE":"LARGE","PERIOD":"95.592","MEAN_MOTION_DDOT":"0.0000000000000","ARG_OF_PERICENTER":"81.5854","COUNTRY_CODE":"US","OBJECT_ID":"2021-005AP","MEAN_MOTION":"15.06400760","ELEMENT_SET_NO":"999","RA_OF_ASC_NODE":"216.7575","BSTAR":"0.00018737000000","DECAY_DATE":null,"REV_AT_EPOCH":"10803","NORAD_CAT_ID":"47386","OBJECT_NAME":"STARLINK-2106","REF_FRAME":"TEME","ECCENTRICITY":"0.00014310","MEAN_MOTION_DOT":"0.00002511","SITE":"AFETR","TLE_LINE2":"2 47386  53.0532 216.7575 0001431  81.5854 278.5298 15.06400760108033","APOAPSIS":"548.202"},{"FILE":"3727988","MEAN_ELEMENT_THEORY":"SGP4","INCLINATION":"53.0551","GP_ID":"221833702","EPHEMERIS_TYPE":"0","CLASSIFICATION_TYPE":"U","OBJECT_TYPE":"PAYLOAD","CENTER_NAME":"EARTH","LAUNCH_DATE":"2021-01-20","TLE_LINE1":"1 47387U 21005AQ  22365.40380445  .00005775  00000-0  40624-3 0  9996","PERIAPSIS":"546.236","SEMIMAJOR_AXIS":"6925.343","EPOCH":"2022-12-31T09:41:28.704480","MEAN_ANOMALY":"274.7786","TIME_SYSTEM":"UTC","REV_AT_EPOCH":"10755","DECAY_DATE":null,"OBJECT_NAME":"STARLINK-2108","NORAD_CAT_ID":"47387","REF_FRAME":"TEME","ECCENTRICITY":"0.00014040","MEAN_MOTION_DOT":"0.00005775","TLE_LINE2":"2 47387  53.0551 248.3072 0001404  85.3363 274.7786 15.06401869107552","APOAPSIS":"548.180","SITE":"AFETR","RCS_SIZE":"LARGE","PERIOD":"95.592","ARG_OF_PERICENTER":"85.3363","COUNTRY_CODE":"US","MEAN_MOTION_DDOT":"0.0000000000000","MEAN_MOTION":"15.06401869","OBJECT_ID":"2021-005AQ","RA_OF_ASC_NODE":"248.3072","ELEMENT_SET_NO":"999","BSTAR":"0.00040624000000"},{"MEAN_MOTION_DDOT":"0.0000000000000","COUNTRY_CODE":"US","ARG_OF_PERICENTER":"85.2981","PERIOD":"95.591","RCS_SIZE":"LARGE","BSTAR":"0.00065749000000","ELEMENT_SET_NO":"999","RA_OF_ASC_NODE":"247.0446","OBJECT_ID":"2021-005AR","MEAN_MOTION":"15.06425647","ECCENTRICITY":"0.00017060","REF_FRAME":"TEME","NORAD_CAT_ID":"47388","OBJECT_NAME":"STARLINK-2109","DECAY_DATE":null,"REV_AT_EPOCH":"10759","SITE":"AFETR","TLE_LINE2":"2 47388  53.0535 247.0446 0001706  85.2981 274.8203 15.06425647107595","APOAPSIS":"548.316","MEAN_MOTION_DOT":"0.00009532","TLE_LINE1":"1 47388U 21005AR  22365.68393172  .00009532  00000-0  65749-3 0  9998","PERIAPSIS":"545.954","LAUNCH_DATE":"2021-01-20","CENTER_NAME":"EARTH","OBJECT_TYPE":"PAYLOAD","TIME_SYSTEM":"UTC","MEAN_ANOMALY":"274.8203","SEMIMAJOR_AXIS":"6925.270","EPOCH":"2022-12-31T16:24:51.700608","GP_ID":"221890165","INCLINATION":"53.0535","MEAN_ELEMENT_THEORY":"SGP4","FILE":"3728081","CLASSIFICATION_TYPE":"U","EPHEMERIS_TYPE":"0"},{"OBJECT_TYPE":"PAYLOAD","TLE_LINE1":"1 47389U 21005AS  22365.66272453  .00004765  00000-0  33854-3 0  9990","PERIAPSIS":"546.132","LAUNCH_DATE":"2021-01-20","CENTER_NAME":"EARTH","MEAN_ANOMALY":"293.5935","SEMIMAJOR_AXIS":"6925.344","EPOCH":"2022-12-31T15:54:19.399392","TIME_SYSTEM":"UTC","INCLINATION":"53.0539","FILE":"3728081","MEAN_ELEMENT_THEORY":"SGP4","GP_ID":"221888924","EPHEMERIS_TYPE":"0","CLASSIFICATION_TYPE":"U","PERIOD":"95.592","RCS_SIZE":"LARGE","MEAN_MOTION_DDOT":"0.0000000000000","COUNTRY_CODE":"US","ARG_OF_PERICENTER":"66.5218","ELEMENT_SET_NO":"999","RA_OF_ASC_NODE":"227.1388","OBJECT_ID":"2021-005AS","MEAN_MOTION":"15.06401520","BSTAR":"0.00033854000000","NORAD_CAT_ID":"47389","OBJECT_NAME":"STARLINK-2110","DECAY_DATE":null,"REV_AT_EPOCH":"10787","ECCENTRICITY":"0.00015550","REF_FRAME":"TEME","MEAN_MOTION_DOT":"0.00004765","APOAPSIS":"548.286","TLE_LINE2":"2 47389  53.0539 227.1388 0001555  66.5218 293.5935 15.06401520107876","SITE":"AFETR"}];
